              M50 Cartesian                         M50 Keplerian  
    -----------------------------------       --------------------------------
     X    =        3720236.62                 A    =         6776988.20  meter
     Y    =        1926561.81  meter          E    =           .0014555
     Z    =       -5339351.44                 I    =           51.93348
     XDOT =      -3777.348290                 Wp   =           81.22931
     YDOT =       6657.823602  meter/sec      RA   =          120.90510  deg
     ZDOT =       -227.971683                 TA   =          186.59416
                                              MA   =          186.61333
                                              Ha   =            220.739  n.mi
                                              Hp   =            214.719
 
              M50 Cartesian                         J2K Cartesian  
    -----------------------------------       --------------------------------
     X    =       12205500.72                 X    =         3724353.14
     Y    =        6320740.84  feet           Y    =         1968186.13  meter
     Z    =      -17517557.21                 Z    =        -5321269.75
     XDOT =     -12392.874968                 XDOT =       -3850.409599
     YDOT =      21843.253288  feet/sec       YDOT =        6615.174235  meter/sec
     ZDOT =       -747.938594                 ZDOT =        -246.499634
 
              TDR Cartesian                         TDR Cartesian  
    -----------------------------------       --------------------------------
     X    =       -9623130.95                 X    =        -2933130.31
     Y    =        9952738.03  feet           Y    =         3033594.55  meter
     Z    =      -17439299.86                 Z    =        -5315498.60
     XDOT =     -16580.201504                 XDOT =       -5053.645418
     YDOT =     -17494.035439  feet/sec       YDOT =       -5332.182002  meter/sec
     ZDOT =       -829.532013                 ZDOT =        -252.841358
  
  
    The mean element set is posted at the UTC for which position is
    just north of the next ascending node relative to the above
    vector time
 
 
    TWO LINE MEAN ELEMENT SET
  
    ISS
    1 25544U 98067A   16084.21617630  .00016717  00000-0  10270-3 0  9046
    2 25544  51.6403 121.8217 0001829 345.4996  14.6104 15.54262643 31764
  
  
    Satellite: ISS
    Catalog Number: 25544
    Epoch time:      16084.21617630   =   yrday.fracday
    Element set:     904
    Inclination:       51.6403  deg
    RA of node:       121.8217  deg
    Eccentricity:     .0001829     
    Arg of perigee:   345.4996  deg
    Mean anomaly:      14.6104  deg
    Mean motion:   15.54262643  rev/day
    Decay rate:    1.67170E-04  rev/day^2
    Epoch rev:            3176
    Checksum:              294
 
 
    Coasting Arc #6 (Orbit 3191)
    ---------------------------------------
 
    Vector Time (GMT): 2016/085/04:47:30.000
    Vector Time (MET): N/A
    Weight (LBS)     : 904106.9
 
              M50 Cartesian                         M50 Keplerian  
    -----------------------------------       --------------------------------
     X    =       -2733381.78                 A    =         6778048.65  meter
     Y    =       -3517869.81  meter          E    =           .0006192
     Z    =        5106126.10                 I    =           51.95170
     XDOT =       4442.351063                 Wp   =           40.30412
     YDOT =      -6002.777895  meter/sec      RA   =          115.92424  deg
     ZDOT =      -1751.782052                 TA   =           66.58689
                                              MA   =           66.52179
                                              Ha   =            220.930  n.mi
                                              Hp   =            214.606
 
              M50 Cartesian                         J2K Cartesian  
    -----------------------------------       --------------------------------
     X    =       -8967788.00                 X    =        -2718644.41
     Y    =      -11541567.62  feet           Y    =        -3548353.13  meter
     Z    =       16752382.20                 Z    =         5092884.28
     XDOT =      14574.642594                 XDOT =        4517.654895
     YDOT =     -19694.153199  feet/sec       YDOT =       -5952.679786  meter/sec
     ZDOT =      -5747.316444                 ZDOT =       -1730.018321
 
              TDR Cartesian                         TDR Cartesian  
    -----------------------------------       --------------------------------
     X    =       13584000.94                 X    =         4140403.49
     Y    =       -5568592.25  feet           Y    =        -1697306.92  meter
     Z    =       16695418.92                 Z    =         5088763.69
     XDOT =      14535.096071                 XDOT =        4430.297282
     YDOT =      18455.025013  feet/sec       YDOT =        5625.091624  meter/sec
     ZDOT =      -5651.753684                 ZDOT =       -1722.654523
  
  
    The mean element set is posted at the UTC for which position is
    just north of the next ascending node relative to the above
    vector time
 
 
    TWO LINE MEAN ELEMENT SET
  
    ISS
    1 25544U 98067A   16085.24492666  .00016717  00000-0  10270-3 0  9051
    2 25544  51.6396 116.6916 0001774 350.2819   9.8299 15.54226029 31927
  
  
    Satellite: ISS
    Catalog Number: 25544
    Epoch time:      16085.24492666   =   yrday.fracday
    Element set:     905
    Inclination:       51.6396  deg
    RA of node:       116.6916  deg
    Eccentricity:     .0001774     
    Arg of perigee:   350.2819  deg
    Mean anomaly:       9.8299  deg
    Mean motion:   15.54226029  rev/day
    Decay rate:    1.67170E-04  rev/day^2
    Epoch rev:            3192
    Checksum:              332
 
 
    Coasting Arc #7 (Orbit 3206)
    ---------------------------------------
 
    Vector Time (GMT): 2016/086/04:47:30.000
    Vector Time (MET): N/A
    Weight (LBS)     : 904106.9
 
              M50 Cartesian                         M50 Keplerian  
    -----------------------------------       --------------------------------
     X    =        1745193.32                 A    =         6781006.43  meter
     Y    =        4920633.87  meter          E    =           .0007733
     Z    =       -4334404.40                 I    =           51.97614
     XDOT =      -4801.584265                 Wp   =           98.77207
     YDOT =       4812.175500  meter/sec      RA   =          110.95151  deg
     ZDOT =       3533.947202                 TA   =          207.04795
                                              MA   =          207.08827
                                              Ha   =            220.780  n.mi
                                              Hp   =            214.612
 
              M50 Cartesian                         J2K Cartesian  
    -----------------------------------       --------------------------------
     X    =        5725699.88                 X    =         1711094.68
     Y    =       16143811.91  feet           Y    =         4939958.53  meter
     Z    =      -14220486.88                 Z    =        -4326010.13
     XDOT =     -15753.229217                 XDOT =       -4872.204858
     YDOT =      15787.977361  feet/sec       YDOT =        4758.086617  meter/sec
     ZDOT =      11594.314966                 ZDOT =        3510.449955
 
              TDR Cartesian                         TDR Cartesian  
    -----------------------------------       --------------------------------
     X    =      -17095659.83                 X    =        -5210757.12
     Y    =        1468878.16  feet           Y    =          447714.06  meter
     Z    =      -14184828.55                 Z    =        -4323535.74
     XDOT =     -11079.271901                 XDOT =       -3376.962075
     YDOT =     -18109.632987  feet/sec       YDOT =       -5519.816134  meter/sec
     ZDOT =      11491.400703                 ZDOT =        3502.578934
  
  
    The mean element set is posted at the UTC for which position is
    just north of the next ascending node relative to the above
    vector time
 
 
    TWO LINE MEAN ELEMENT SET
  
    ISS
    1 25544U 98067A   16086.20936932  .00016717  00000-0  10270-3 0  9068
    2 25544  51.6406 111.8833 0001873 348.2184  11.8924 15.54267497 32075
  
  
    Satellite: ISS
    Catalog Number: 25544
    Epoch time:      16086.20936932   =   yrday.fracday
    Element set:     906
    Inclination:       51.6406  deg
    RA of node:       111.8833  deg
    Eccentricity:     .0001873     
    Arg of perigee:   348.2184  deg
    Mean anomaly:      11.8924  deg
    Mean motion:   15.54267497  rev/day
    Decay rate:    1.67170E-04  rev/day^2
    Epoch rev:            3207
    Checksum:              317
 
 
    Coasting Arc #8 (Orbit 3210)
    ---------------------------------------
 
    Vector Time (GMT): 2016/086/10:40:00.000
    Vector Time (MET): N/A
    Weight (LBS)     : 917037.0
 
              M50 Cartesian                         M50 Keplerian  
    -----------------------------------       --------------------------------
     X    =        4548637.47                 A    =         6780607.61  meter
     Y    =       -2343252.23  meter          E    =           .0009906
     Z    =       -4459463.36                 I    =           51.97835
     XDOT =        286.857036                 Wp   =           57.79171
     YDOT =       6892.240686  meter/sec      RA   =          109.78697  deg
     ZDOT =      -3329.234327                 TA   =          178.72297
                                              MA   =          178.72044
                                              Ha   =            220.852  n.mi
                                              Hp   =            214.608
 
